{
  "type": "FeatureCollection",
  "features": [
    {
      "type": "Feature",
      "properties": {
        "norad_id": 31563,
        "name": "FENGYUN 1C DEB",
        "group": "fengyun-1c-debris",
        "lat": -80.36877313227872,
        "lon": -95.53193058378149,
        "alt_km": 741.703797252263,
        "timestamp": "2025-12-24T05:51:19.891862+00:00",
        "meta_object_name": "FENGYUN 1C DEB",
        "meta_object_id": "1999-025BZE",
        "meta_epoch": "2025-12-23T15:31:59.271456",
        "meta_mean_motion": 14.6536139,
        "meta_eccentricity": 0.01136597,
        "meta_inclination": 98.9535,
        "meta_ra_of_asc_node": 152.1051,
        "meta_arg_of_pericenter": 45.5494,
        "meta_mean_anomaly": 315.4936,
        "meta_ephemeris_type": 0,
        "meta_classification_type": "U",
        "meta_norad_cat_id": 31563,
        "meta_element_set_no": 999,
        "meta_rev_at_epoch": 98704,
        "meta_bstar": 0.00048947693,
        "meta_mean_motion_dot": 2.846e-05,
        "meta_mean_motion_ddot": 0,
        "tle_line1": "1 31563U 99025BZE 25357.64721379  .00002846  00000+0  48948-3 0  9999",
        "tle_line2": "2 31563  98.9535 152.1051 0113659  45.5494 315.4936 14.65361390987047"
      },
      "geometry": {
        "type": "Point",
        "coordinates": [
          -95.53193058378149,
          -80.36877313227872
        ]
      }
    },
    {
      "type": "Feature",
      "properties": {
        "norad_id": 31565,
        "name": "FENGYUN 1C DEB",
        "group": "fengyun-1c-debris",
        "lat": -23.88378133677993,
        "lon": 48.399902219129046,
        "alt_km": 801.004057424474,
        "timestamp": "2025-12-24T05:51:19.891872+00:00",
        "meta_object_name": "FENGYUN 1C DEB",
        "meta_object_id": "1999-025BZG",
        "meta_epoch": "2025-12-22T09:31:28.862112",
        "meta_mean_motion": 14.39101299,
        "meta_eccentricity": 0.00571858,
        "meta_inclination": 100.7166,
        "meta_ra_of_asc_node": 230.9071,
        "meta_arg_of_pericenter": 356.658,
        "meta_mean_anomaly": 3.421,
        "meta_ephemeris_type": 0,
        "meta_classification_type": "U",
        "meta_norad_cat_id": 31565,
        "meta_element_set_no": 999,
        "meta_rev_at_epoch": 64492,
        "meta_bstar": 0.0037078807,
        "meta_mean_motion_dot": 0.00011648,
        "meta_mean_motion_ddot": 0,
        "tle_line1": "1 31565U 99025BZG 25356.39686183  .00011648  00000+0  37079-2 0  9997",
        "tle_line2": "2 31565 100.7166 230.9071 0057185 356.6580   3.4210 14.39101299644928"
      },
      "geometry": {
        "type": "Point",
        "coordinates": [
          48.399902219129046,
          -23.88378133677993
        ]
      }
    },
    {
      "type": "Feature",
      "properties": {
        "norad_id": 31566,
        "name": "FENGYUN 1C DEB",
        "group": "fengyun-1c-debris",
        "lat": -8.210229595843765,
        "lon": -123.67965117296868,
        "alt_km": 781.5020803722955,
        "timestamp": "2025-12-24T05:51:19.891882+00:00",
        "meta_object_name": "FENGYUN 1C DEB",
        "meta_object_id": "1999-025BZH",
        "meta_epoch": "2025-12-23T20:55:52.896864",
        "meta_mean_motion": 14.37517411,
        "meta_eccentricity": 0.00233006,
        "meta_inclination": 98.9478,
        "meta_ra_of_asc_node": 57.2362,
        "meta_arg_of_pericenter": 320.1374,
        "meta_mean_anomaly": 105.0528,
        "meta_ephemeris_type": 0,
        "meta_classification_type": "U",
        "meta_norad_cat_id": 31566,
        "meta_element_set_no": 999,
        "meta_rev_at_epoch": 96551,
        "meta_bstar": 0.0021354453,
        "meta_mean_motion_dot": 6.374e-05,
        "meta_mean_motion_ddot": 0,
        "tle_line1": "1 31566U 99025BZH 25357.87214001  .00006374  00000+0  21354-2 0  9997",
        "tle_line2": "2 31566  98.9478  57.2362 0023300 320.1374 105.0528 14.37517411965512"
      },
      "geometry": {
        "type": "Point",
        "coordinates": [
          -123.67965117296868,
          -8.210229595843765
        ]
      }
    },
    {
      "type": "Feature",
      "properties": {
        "norad_id": 31567,
        "name": "FENGYUN 1C DEB",
        "group": "fengyun-1c-debris",
        "lat": 73.24714471558471,
        "lon": -177.83022684313798,
        "alt_km": 1036.2478400424325,
        "timestamp": "2025-12-24T05:51:19.891891+00:00",
        "meta_object_name": "FENGYUN 1C DEB",
        "meta_object_id": "1999-025BZJ",
        "meta_epoch": "2025-12-23T20:51:17.831232",
        "meta_mean_motion": 13.92963607,
        "meta_eccentricity": 0.01864004,
        "meta_inclination": 102.3176,
        "meta_ra_of_asc_node": 228.2111,
        "meta_arg_of_pericenter": 282.1033,
        "meta_mean_anomaly": 75.9286,
        "meta_ephemeris_type": 0,
        "meta_classification_type": "U",
        "meta_norad_cat_id": 31567,
        "meta_element_set_no": 999,
        "meta_rev_at_epoch": 67564,
        "meta_bstar": 0.0028089965,
        "meta_mean_motion_dot": 4.139e-05,
        "meta_mean_motion_ddot": 0,
        "tle_line1": "1 31567U 99025BZJ 25357.86895638  .00004139  00000+0  28090-2 0  9999",
        "tle_line2": "2 31567 102.3176 228.2111 0186400 282.1033  75.9286 13.92963607675640"
      },
      "geometry": {
        "type": "Point",
        "coordinates": [
          -177.83022684313798,
          73.24714471558471
        ]
      }
    },
    {
      "type": "Feature",
      "properties": {
        "norad_id": 31568,
        "name": "FENGYUN 1C DEB",
        "group": "fengyun-1c-debris",
        "lat": -34.18514035522621,
        "lon": -107.61005746506721,
        "alt_km": 939.687436308579,
        "timestamp": "2025-12-24T05:51:19.891901+00:00",
        "meta_object_name": "FENGYUN 1C DEB",
        "meta_object_id": "1999-025BZK",
        "meta_epoch": "2025-12-22T23:13:36.644736",
        "meta_mean_motion": 14.03431945,
        "meta_eccentricity": 0.01239953,
        "meta_inclination": 102.049,
        "meta_ra_of_asc_node": 242.3634,
        "meta_arg_of_pericenter": 93.8828,
        "meta_mean_anomaly": 267.6513,
        "meta_ephemeris_type": 0,
        "meta_classification_type": "U",
        "meta_norad_cat_id": 31568,
        "meta_element_set_no": 999,
        "meta_rev_at_epoch": 94723,
        "meta_bstar": 0.0030433024,
        "meta_mean_motion_dot": 5.034e-05,
        "meta_mean_motion_ddot": 0,
        "tle_line1": "1 31568U 99025BZK 25356.96778524  .00005034  00000+0  30433-2 0  9993",
        "tle_line2": "2 31568 102.0490 242.3634 0123995  93.8828 267.6513 14.03431945947231"
      },
      "geometry": {
        "type": "Point",
        "coordinates": [
          -107.61005746506721,
          -34.18514035522621
        ]
      }
    },
    {
      "type": "Feature",
      "properties": {
        "norad_id": 31569,
        "name": "FENGYUN 1C DEB",
        "group": "fengyun-1c-debris",
        "lat": -4.591328482181356,
        "lon": -21.37020424906586,
        "alt_km": 1026.112791518649,
        "timestamp": "2025-12-24T05:51:19.891911+00:00",
        "meta_object_name": "FENGYUN 1C DEB",
        "meta_object_id": "1999-025BZL",
        "meta_epoch": "2025-12-23T05:44:20.685120",
        "meta_mean_motion": 13.95594539,
        "meta_eccentricity": 0.01745729,
        "meta_inclination": 102.6156,
        "meta_ra_of_asc_node": 158.2896,
        "meta_arg_of_pericenter": 340.7991,
        "meta_mean_anomaly": 198.5492,
        "meta_ephemeris_type": 0,
        "meta_classification_type": "U",
        "meta_norad_cat_id": 31569,
        "meta_element_set_no": 999,
        "meta_rev_at_epoch": 93825,
        "meta_bstar": 0.002165206,
        "meta_mean_motion_dot": 3.274e-05,
        "meta_mean_motion_ddot": 0,
        "tle_line1": "1 31569U 99025BZL 25357.23912830  .00003274  00000+0  21652-2 0  9992",
        "tle_line2": "2 31569 102.6156 158.2896 0174572 340.7991 198.5492 13.95594539938253"
      },
      "geometry": {
        "type": "Point",
        "coordinates": [
          -21.37020424906586,
          -4.591328482181356
        ]
      }
    },
    {
      "type": "Feature",
      "properties": {
        "norad_id": 31570,
        "name": "FENGYUN 1C DEB",
        "group": "fengyun-1c-debris",
        "lat": -36.68154945944055,
        "lon": -147.4680512543511,
        "alt_km": 710.1404714980936,
        "timestamp": "2025-12-24T05:51:19.891921+00:00",
        "meta_object_name": "FENGYUN 1C DEB",
        "meta_object_id": "1999-025BZM",
        "meta_epoch": "2025-12-19T23:45:35.930016",
        "meta_mean_motion": 14.25330142,
        "meta_eccentricity": 0.01547682,
        "meta_inclination": 102.5663,
        "meta_ra_of_asc_node": 36.0247,
        "meta_arg_of_pericenter": 206.1842,
        "meta_mean_anomaly": 153.1437,
        "meta_ephemeris_type": 0,
        "meta_classification_type": "U",
        "meta_norad_cat_id": 31570,
        "meta_element_set_no": 999,
        "meta_rev_at_epoch": 63470,
        "meta_bstar": 0.0019503601,
        "meta_mean_motion_dot": 5.132e-05,
        "meta_mean_motion_ddot": 0,
        "tle_line1": "1 31570U 99025BZM 25353.98999919  .00005132  00000+0  19504-2 0  9993",
        "tle_line2": "2 31570 102.5663  36.0247 0154768 206.1842 153.1437 14.25330142634706"
      },
      "geometry": {
        "type": "Point",
        "coordinates": [
          -147.4680512543511,
          -36.68154945944055
        ]
      }
    }
  ]
}